{
  "norad_id": 59566,
  "name": "STARLINK-31332",
  "history": [
    {
      "epoch": "2026-03-28T18:31:24.371904Z",
      "apogee_km": 483.87543901377194,
      "perigee_km": 482.190198482891,
      "latitude_deg": -8.890589774663962e-06,
      "longitude_deg": 156.96937453005685,
      "height_km": 482.75229832722255,
      "semi_major_axis_km": 6861.169818748332,
      "eccentricity": 0.00012281,
      "inclination_deg": 42.9971,
      "raan_deg": 261.0084,
      "arg_perigee_deg": 273.8625,
      "mean_anomaly_deg": 86.2086,
      "mean_motion_rev_day": 15.27585436
    },
    {
      "epoch": "2026-03-29T03:56:20.439744Z",
      "apogee_km": 484.09198102575465,
      "perigee_km": 481.9540435659228,
      "latitude_deg": 2.573065891739365e-05,
      "longitude_deg": 13.135011547247196,
      "height_km": 482.6571131714476,
      "semi_major_axis_km": 6861.160012295839,
      "eccentricity": 0.0001558,
      "inclination_deg": 42.9994,
      "raan_deg": 258.7943,
      "arg_perigee_deg": 277.6698,
      "mean_anomaly_deg": 82.3977,
      "mean_motion_rev_day": 15.27588711
    },
    {
      "epoch": "2026-03-29T22:46:13.544832Z",
      "apogee_km": 484.00632362726446,
      "perigee_km": 482.0886225670338,
      "latitude_deg": 1.9492801792871106e-05,
      "longitude_deg": 85.45635523529647,
      "height_km": 482.6289749712591,
      "semi_major_axis_km": 6861.184473097149,
      "eccentricity": 0.00013975,
      "inclination_deg": 42.9973,
      "raan_deg": 254.3603,
      "arg_perigee_deg": 281.7278,
      "mean_anomaly_deg": 78.3417,
      "mean_motion_rev_day": 15.27580542
    },
    {
      "epoch": "2026-03-30T11:19:29.088480Z",
      "apogee_km": 484.390505387807,
      "perigee_km": 481.79668577345365,
      "latitude_deg": 3.84262184995899e-05,
      "longitude_deg": -106.32547670913361,
      "height_km": 482.4899617931982,
      "semi_major_axis_km": 6861.23059558063,
      "eccentricity": 0.00018902,
      "inclination_deg": 42.9991,
      "raan_deg": 251.4088,
      "arg_perigee_deg": 287.0662,
      "mean_anomaly_deg": 72.9983,
      "mean_motion_rev_day": 15.27565139
    },
    {
      "epoch": "2026-03-30T19:10:16.041792Z",
      "apogee_km": 484.1167244517037,
      "perigee_km": 482.01404036958957,
      "latitude_deg": 2.9947388433359365e-06,
      "longitude_deg": 133.80710787320098,
      "height_km": 482.6182682082822,
      "semi_major_axis_km": 6861.202382410646,
      "eccentricity": 0.00015323,
      "inclination_deg": 42.9983,
      "raan_deg": 249.5593,
      "arg_perigee_deg": 282.2872,
      "mean_anomaly_deg": 77.7808,
      "mean_motion_rev_day": 15.27574561
    },
    {
      "epoch": "2026-03-31T17:08:27.885696Z",
      "apogee_km": 483.87656253232944,
      "perigee_km": 482.2532021669658,
      "latitude_deg": -4.1387654072471906e-05,
      "longitude_deg": 158.18463811802292,
      "height_km": 482.6312661873318,
      "semi_major_axis_km": 6861.201882349647,
      "eccentricity": 0.0001183,
      "inclination_deg": 42.9996,
      "raan_deg": 244.3885,
      "arg_perigee_deg": 285.0009,
      "mean_anomaly_deg": 75.0711,
      "mean_motion_rev_day": 15.27574728
    },
    {
      "epoch": "2026-04-01T16:40:48.134784Z",
      "apogee_km": 483.8990259447901,
      "perigee_km": 482.1247328445779,
      "latitude_deg": -6.6024585544969476e-06,
      "longitude_deg": 158.5965946150284,
      "height_km": 482.61898768292156,
      "semi_major_axis_km": 6861.148879394684,
      "eccentricity": 0.0001293,
      "inclination_deg": 42.9983,
      "raan_deg": 238.8515,
      "arg_perigee_deg": 281.0028,
      "mean_anomaly_deg": 79.0678,
      "mean_motion_rev_day": 15.27592429
    },
    {
      "epoch": "2026-04-02T19:21:27.071712Z",
      "apogee_km": 483.5611515638702,
      "perigee_km": 482.41808786902584,
      "latitude_deg": -2.227501616408016e-05,
      "longitude_deg": 111.06223636405001,
      "height_km": 482.67404870341176,
      "semi_major_axis_km": 6861.126619716448,
      "eccentricity": 8.33e-05,
      "inclination_deg": 42.9977,
      "raan_deg": 232.575,
      "arg_perigee_deg": 279.2154,
      "mean_anomaly_deg": 80.8603,
      "mean_motion_rev_day": 15.27599863
    },
    {
      "epoch": "2026-04-02T19:21:27.072576Z",
      "apogee_km": 483.5613573976698,
      "perigee_km": 482.4178820352263,
      "latitude_deg": -1.9946470902048853e-05,
      "longitude_deg": 111.06223523765605,
      "height_km": 482.6740157445018,
      "semi_major_axis_km": 6861.126619716448,
      "eccentricity": 8.333e-05,
      "inclination_deg": 42.9977,
      "raan_deg": 232.575,
      "arg_perigee_deg": 279.2154,
      "mean_anomaly_deg": 80.8603,
      "mean_motion_rev_day": 15.27599863
    },
    {
      "epoch": "2026-04-03T17:19:39.624096Z",
      "apogee_km": 484.0304802687933,
      "perigee_km": 482.24929278904983,
      "latitude_deg": 4.1869756531816165e-05,
      "longitude_deg": 135.43582111543216,
      "height_km": 482.8373133228083,
      "semi_major_axis_km": 6861.276886528921,
      "eccentricity": 0.0001298,
      "inclination_deg": 42.9984,
      "raan_deg": 227.4031,
      "arg_perigee_deg": 275.0902,
      "mean_anomaly_deg": 84.9802,
      "mean_motion_rev_day": 15.2754968
    },
    {
      "epoch": "2026-04-04T09:01:12.649440Z",
      "apogee_km": 484.15451243401094,
      "perigee_km": 481.8866254111781,
      "latitude_deg": -4.751274251481695e-06,
      "longitude_deg": -104.28900294865213,
      "height_km": 482.13952307393134,
      "semi_major_axis_km": 6861.157568922594,
      "eccentricity": 0.00016527,
      "inclination_deg": 42.9953,
      "raan_deg": 223.7104,
      "arg_perigee_deg": 305.4248,
      "mean_anomaly_deg": 54.6449,
      "mean_motion_rev_day": 15.27589527
    },
    {
      "epoch": "2026-04-05T14:50:13.641216Z",
      "apogee_km": 484.23471110303217,
      "perigee_km": 482.068053457675,
      "latitude_deg": -4.819179672620259e-05,
      "longitude_deg": 160.21637831843466,
      "height_km": 482.8937708248976,
      "semi_major_axis_km": 6861.288382280353,
      "eccentricity": 0.00015789,
      "inclination_deg": 42.9978,
      "raan_deg": 216.6945,
      "arg_perigee_deg": 271.8105,
      "mean_anomaly_deg": 88.2565,
      "mean_motion_rev_day": 15.27545841
    },
    {
      "epoch": "2026-04-05T17:58:32.565792Z",
      "apogee_km": 484.1183957783751,
      "perigee_km": 482.1637548802755,
      "latitude_deg": -2.3890167263678633e-05,
      "longitude_deg": 112.27155428589032,
      "height_km": 482.92391309132836,
      "semi_major_axis_km": 6861.278075329325,
      "eccentricity": 0.00014244,
      "inclination_deg": 42.999,
      "raan_deg": 215.9574,
      "arg_perigee_deg": 269.6352,
      "mean_anomaly_deg": 90.4336,
      "mean_motion_rev_day": 15.27549283
    },
    {
      "epoch": "2026-04-07T13:54:53.355744Z",
      "apogee_km": 484.3217264869036,
      "perigee_km": 481.7172314874806,
      "latitude_deg": 3.6743930446078315e-05,
      "longitude_deg": 161.04017446258666,
      "height_km": 482.8721525005334,
      "semi_major_axis_km": 6861.156478987192,
      "eccentricity": 0.0001898,
      "inclination_deg": 42.9986,
      "raan_deg": 205.6171,
      "arg_perigee_deg": 266.6653,
      "mean_anomaly_deg": 93.3982,
      "mean_motion_rev_day": 15.27589891
    },
    {
      "epoch": "2026-04-07T13:54:53.356608Z",
      "apogee_km": 484.3220695447271,
      "perigee_km": 481.71688842965614,
      "latitude_deg": 4.0678281658466176e-05,
      "longitude_deg": 161.04017504868128,
      "height_km": 482.8721724525362,
      "semi_major_axis_km": 6861.156478987192,
      "eccentricity": 0.00018985,
      "inclination_deg": 42.9986,
      "raan_deg": 205.6171,
      "arg_perigee_deg": 266.6653,
      "mean_anomaly_deg": 93.3982,
      "mean_motion_rev_day": 15.27589891
    },
    {
      "epoch": "2026-04-08T13:27:13.712832Z",
      "apogee_km": 484.02951371431027,
      "perigee_km": 482.06200094681844,
      "latitude_deg": -1.9066824778014555e-05,
      "longitude_deg": 161.44957888761056,
      "height_km": 482.8116885196788,
      "semi_major_axis_km": 6861.1827573305645,
      "eccentricity": 0.00014338,
      "inclination_deg": 42.9985,
      "raan_deg": 200.0781,
      "arg_perigee_deg": 270.6194,
      "mean_anomaly_deg": 89.4493,
      "mean_motion_rev_day": 15.27581115
    },
    {
      "epoch": "2026-04-09T12:59:34.742976Z",
      "apogee_km": 484.2029684976678,
      "perigee_km": 481.87236468691935,
      "latitude_deg": 6.896038603620795e-05,
      "longitude_deg": 161.85722466556052,
      "height_km": 482.83145761355445,
      "semi_major_axis_km": 6861.174666592293,
      "eccentricity": 0.00016984,
      "inclination_deg": 42.9998,
      "raan_deg": 194.54,
      "arg_perigee_deg": 269.17,
      "mean_anomaly_deg": 90.8958,
      "mean_motion_rev_day": 15.27583817
    },
    {
      "epoch": "2026-04-10T12:31:56.110944Z",
      "apogee_km": 484.2136883074454,
      "perigee_km": 481.9110697958349,
      "latitude_deg": 2.399847953768594e-05,
      "longitude_deg": 162.26121751563954,
      "height_km": 482.76656599700544,
      "semi_major_axis_km": 6861.19937905164,
      "eccentricity": 0.0001678,
      "inclination_deg": 42.9983,
      "raan_deg": 188.9998,
      "arg_perigee_deg": 273.6132,
      "mean_anomaly_deg": 86.4528,
      "mean_motion_rev_day": 15.27575564
    },
    {
      "epoch": "2026-04-11T16:46:45.208704Z",
      "apogee_km": 483.70135112767,
      "perigee_km": 482.4128188785062,
      "latitude_deg": -6.454987494693463e-06,
      "longitude_deg": 90.7508469063765,
      "height_km": 483.2973589606269,
      "semi_major_axis_km": 6861.194085003088,
      "eccentricity": 9.39e-05,
      "inclination_deg": 42.9988,
      "raan_deg": 182.3541,
      "arg_perigee_deg": 223.874,
      "mean_anomaly_deg": 136.2037,
      "mean_motion_rev_day": 15.27577332
    }
  ]
}